ORBCOMM FM05            
1 25117U 97084F   25196.47448359  .00000664  00000+0  22496-3 0  9992
2 25117  45.0136 232.2306 0003395 306.0915  53.9622 14.46004002444706
ORBCOMM FM06            
1 25118U 97084G   25196.56284698  .00000714  00000+0  23837-3 0  9993
2 25118  45.0129 231.5136 0002858 290.1757 225.7831 14.46137086445635
ORBCOMM FM07            
1 25119U 97084H   25196.47727864  .00000695  00000+0  23286-3 0  9997
2 25119  45.0124 232.6926 0004158 311.6335  48.4160 14.46135076445616
ORBCOMM FM03            
1 25158U 98007B   25196.57567464  .00000542  00000+0  23603-3 0  9999
2 25158 107.9662 193.9197 0045377 201.3851 158.5393 14.34552297428111
ORBCOMM FM04            
1 25159U 98007C   25196.62471441  .00000592  00000+0  25268-3 0  9999
2 25159 107.9652 197.2618 0041091 198.9680 160.9930 14.34799330428302
ORBCOMM FM17            
1 25413U 98046A   25196.52228840  .00000540  00000+0  23640-3 0  9992
2 25413  44.9940 123.8736 0004366 345.4118  14.6602 14.35131826407242
ORBCOMM FM18            
1 25414U 98046B   25196.54484473  .00000683  00000+0  26719-3 0  9999
2 25414  44.9939  40.4062 0005168  69.0603 291.0798 14.38609073408331
ORBCOMM FM19            
1 25415U 98046C   25196.57403807  .00000682  00000+0  26782-3 0  9994
2 25415  44.9949  42.3113 0003952  64.1457 343.3770 14.38417785408296
